CCSDS_OMM_VERS = 2.0
CREATION_DATE  = 
ORIGINATOR     = 

OBJECT_NAME    = UNKNOWN
OBJECT_ID      = 
CENTER_NAME    = EARTH
REF_FRAME      = TEME
TIME_SYSTEM    = UTC
MEAN_ELEMENT_THEORY = SGP/SGP4

EPOCH          = 2026-04-03T13:50:53.662272
MEAN_MOTION    = 12.26145127
ECCENTRICITY   = .0384903
INCLINATION    = 101.1021
RA_OF_ASC_NODE = 147.8036
ARG_OF_PERICENTER = 230.2534
MEAN_ANOMALY   = 126.4018

EPHEMERIS_TYPE = 0
CLASSIFICATION_TYPE = U
NORAD_CAT_ID   = 81693
ELEMENT_SET_NO = 999
REV_AT_EPOCH   = 98147
BSTAR          = .13158E-1
MEAN_MOTION_DOT = .1834E-4
MEAN_MOTION_DDOT = 0

CCSDS_OMM_VERS = 2.0
CREATION_DATE  = 
ORIGINATOR     = 

OBJECT_NAME    = UNKNOWN
OBJECT_ID      = 
CENTER_NAME    = EARTH
REF_FRAME      = TEME
TIME_SYSTEM    = UTC
MEAN_ELEMENT_THEORY = SGP/SGP4

EPOCH          = 2026-04-04T09:45:24.938496
MEAN_MOTION    = 14.40996057
ECCENTRICITY   = .0003889
INCLINATION    = 70.9991
RA_OF_ASC_NODE = 140.7846
ARG_OF_PERICENTER = 3.3668
MEAN_ANOMALY   = 356.7493

EPHEMERIS_TYPE = 0
CLASSIFICATION_TYPE = U
NORAD_CAT_ID   = 81745
ELEMENT_SET_NO = 999
REV_AT_EPOCH   = 64597
BSTAR          = .10657E-2
MEAN_MOTION_DOT = .3378E-4
MEAN_MOTION_DDOT = 0

CCSDS_OMM_VERS = 2.0
CREATION_DATE  = 
ORIGINATOR     = 

OBJECT_NAME    = UNKNOWN
OBJECT_ID      = 
CENTER_NAME    = EARTH
REF_FRAME      = TEME
TIME_SYSTEM    = UTC
MEAN_ELEMENT_THEORY = SGP/SGP4

EPOCH          = 2026-04-04T00:17:53.844864
MEAN_MOTION    = 12.77646364
ECCENTRICITY   = .0367479
INCLINATION    = 99.6724
RA_OF_ASC_NODE = 112.8053
ARG_OF_PERICENTER = 324.7398
MEAN_ANOMALY   = 63.2015

EPHEMERIS_TYPE = 0
CLASSIFICATION_TYPE = U
NORAD_CAT_ID   = 81749
ELEMENT_SET_NO = 999
REV_AT_EPOCH   = 57634
BSTAR          = .6038E-3
MEAN_MOTION_DOT = .139E-5
MEAN_MOTION_DDOT = 0

CCSDS_OMM_VERS = 2.0
CREATION_DATE  = 
ORIGINATOR     = 

OBJECT_NAME    = UNKNOWN
OBJECT_ID      = 
CENTER_NAME    = EARTH
REF_FRAME      = TEME
TIME_SYSTEM    = UTC
MEAN_ELEMENT_THEORY = SGP/SGP4

EPOCH          = 2026-04-03T12:59:47.852448
MEAN_MOTION    = 14.42535610
ECCENTRICITY   = .0014302
INCLINATION    = 82.9175
RA_OF_ASC_NODE = 131.5109
ARG_OF_PERICENTER = 248.4298
MEAN_ANOMALY   = 111.5372

EPHEMERIS_TYPE = 0
CLASSIFICATION_TYPE = U
NORAD_CAT_ID   = 81775
ELEMENT_SET_NO = 999
REV_AT_EPOCH   = 64138
BSTAR          = .28325E-2
MEAN_MOTION_DOT = .9426E-4
MEAN_MOTION_DDOT = 0

CCSDS_OMM_VERS = 2.0
CREATION_DATE  = 
ORIGINATOR     = 

OBJECT_NAME    = UNKNOWN
OBJECT_ID      = 
CENTER_NAME    = EARTH
REF_FRAME      = TEME
TIME_SYSTEM    = UTC
MEAN_ELEMENT_THEORY = SGP/SGP4

EPOCH          = 2026-04-03T05:34:41.877696
MEAN_MOTION    = 9.33761831
ECCENTRICITY   = .143952
INCLINATION    = 54.4618
RA_OF_ASC_NODE = 43.4370
ARG_OF_PERICENTER = 149.0612
MEAN_ANOMALY   = 220.3591

EPHEMERIS_TYPE = 0
CLASSIFICATION_TYPE = U
NORAD_CAT_ID   = 81779
ELEMENT_SET_NO = 999
REV_AT_EPOCH   = 49073
BSTAR          = .16394E+0
MEAN_MOTION_DOT = .237E-4
MEAN_MOTION_DDOT = 0

CCSDS_OMM_VERS = 2.0
CREATION_DATE  = 
ORIGINATOR     = 

OBJECT_NAME    = UNKNOWN
OBJECT_ID      = 
CENTER_NAME    = EARTH
REF_FRAME      = TEME
TIME_SYSTEM    = UTC
MEAN_ELEMENT_THEORY = SGP/SGP4

EPOCH          = 2026-04-03T13:10:48.902304
MEAN_MOTION    = 13.11448336
ECCENTRICITY   = .0894875
INCLINATION    = 65.8326
RA_OF_ASC_NODE = 204.5237
ARG_OF_PERICENTER = 233.0940
MEAN_ANOMALY   = 118.4837

EPHEMERIS_TYPE = 0
CLASSIFICATION_TYPE = U
NORAD_CAT_ID   = 81792
ELEMENT_SET_NO = 999
REV_AT_EPOCH   = 9469
BSTAR          = .12405E-2
MEAN_MOTION_DOT = .3526E-4
MEAN_MOTION_DDOT = 0

CCSDS_OMM_VERS = 2.0
CREATION_DATE  = 
ORIGINATOR     = 

OBJECT_NAME    = UNKNOWN
OBJECT_ID      = 
CENTER_NAME    = EARTH
REF_FRAME      = TEME
TIME_SYSTEM    = UTC
MEAN_ELEMENT_THEORY = SGP/SGP4

EPOCH          = 2026-04-03T17:49:45.098112
MEAN_MOTION    = 12.38618266
ECCENTRICITY   = .0327235
INCLINATION    = 103.7974
RA_OF_ASC_NODE = 24.8195
ARG_OF_PERICENTER = 42.9343
MEAN_ANOMALY   = 319.6768

EPHEMERIS_TYPE = 0
CLASSIFICATION_TYPE = U
NORAD_CAT_ID   = 81812
ELEMENT_SET_NO = 999
REV_AT_EPOCH   = 55442
BSTAR          = .51107E-1
MEAN_MOTION_DOT = .8019E-4
MEAN_MOTION_DDOT = 0

CCSDS_OMM_VERS = 2.0
CREATION_DATE  = 
ORIGINATOR     = 

OBJECT_NAME    = UNKNOWN
OBJECT_ID      = 
CENTER_NAME    = EARTH
REF_FRAME      = TEME
TIME_SYSTEM    = UTC
MEAN_ELEMENT_THEORY = SGP/SGP4

EPOCH          = 2026-04-04T07:10:43.435776
MEAN_MOTION    = 13.89817222
ECCENTRICITY   = .0168716
INCLINATION    = 66.2389
RA_OF_ASC_NODE = 15.4195
ARG_OF_PERICENTER = 183.1618
MEAN_ANOMALY   = 176.8406

EPHEMERIS_TYPE = 0
CLASSIFICATION_TYPE = U
NORAD_CAT_ID   = 81816
ELEMENT_SET_NO = 999
REV_AT_EPOCH   = 62498
BSTAR          = .15247E-2
MEAN_MOTION_DOT = .2023E-4
MEAN_MOTION_DDOT = 0

CCSDS_OMM_VERS = 2.0
CREATION_DATE  = 
ORIGINATOR     = 

OBJECT_NAME    = UNKNOWN
OBJECT_ID      = 
CENTER_NAME    = EARTH
REF_FRAME      = TEME
TIME_SYSTEM    = UTC
MEAN_ELEMENT_THEORY = SGP/SGP4

EPOCH          = 2026-04-04T05:25:41.427552
MEAN_MOTION    = 12.47896904
ECCENTRICITY   = .0035449
INCLINATION    = 102.1686
RA_OF_ASC_NODE = 197.9690
ARG_OF_PERICENTER = 256.9002
MEAN_ANOMALY   = 102.8108

EPHEMERIS_TYPE = 0
CLASSIFICATION_TYPE = U
NORAD_CAT_ID   = 81819
ELEMENT_SET_NO = 999
REV_AT_EPOCH   = 56204
BSTAR          = .69734E-2
MEAN_MOTION_DOT = .987E-5
MEAN_MOTION_DDOT = 0

CCSDS_OMM_VERS = 2.0
CREATION_DATE  = 
ORIGINATOR     = 

OBJECT_NAME    = UNKNOWN
OBJECT_ID      = 
CENTER_NAME    = EARTH
REF_FRAME      = TEME
TIME_SYSTEM    = UTC
MEAN_ELEMENT_THEORY = SGP/SGP4

EPOCH          = 2026-04-04T12:17:31.270272
MEAN_MOTION    = 14.36763553
ECCENTRICITY   = .004902
INCLINATION    = 65.8440
RA_OF_ASC_NODE = 29.0544
ARG_OF_PERICENTER = 280.9043
MEAN_ANOMALY   = 78.6538

EPHEMERIS_TYPE = 0
CLASSIFICATION_TYPE = U
NORAD_CAT_ID   = 81824
ELEMENT_SET_NO = 999
REV_AT_EPOCH   = 64078
BSTAR          = .21745E-2
MEAN_MOTION_DOT = .6429E-4
MEAN_MOTION_DDOT = 0

CCSDS_OMM_VERS = 2.0
CREATION_DATE  = 
ORIGINATOR     = 

OBJECT_NAME    = UNKNOWN
OBJECT_ID      = 
CENTER_NAME    = EARTH
REF_FRAME      = TEME
TIME_SYSTEM    = UTC
MEAN_ELEMENT_THEORY = SGP/SGP4

EPOCH          = 2026-03-31T00:07:08.399712
MEAN_MOTION    = 12.93780027
ECCENTRICITY   = .0028252
INCLINATION    = 90.2483
RA_OF_ASC_NODE = 5.3018
ARG_OF_PERICENTER = 97.0860
MEAN_ANOMALY   = 263.3472

EPHEMERIS_TYPE = 0
CLASSIFICATION_TYPE = U
NORAD_CAT_ID   = 81833
ELEMENT_SET_NO = 999
REV_AT_EPOCH   = 46651
BSTAR          = .1482E-2
MEAN_MOTION_DOT = .416E-5
MEAN_MOTION_DDOT = 0

CCSDS_OMM_VERS = 2.0
CREATION_DATE  = 
ORIGINATOR     = 

OBJECT_NAME    = UNKNOWN
OBJECT_ID      = 
CENTER_NAME    = EARTH
REF_FRAME      = TEME
TIME_SYSTEM    = UTC
MEAN_ELEMENT_THEORY = SGP/SGP4

EPOCH          = 2026-04-03T02:41:52.876320
MEAN_MOTION    = 14.58622573
ECCENTRICITY   = .0043546
INCLINATION    = 67.7608
RA_OF_ASC_NODE = 334.7650
ARG_OF_PERICENTER = 264.8935
MEAN_ANOMALY   = 246.6464

EPHEMERIS_TYPE = 0
CLASSIFICATION_TYPE = U
NORAD_CAT_ID   = 81838
ELEMENT_SET_NO = 999
REV_AT_EPOCH   = 64956
BSTAR          = .18607E-2
MEAN_MOTION_DOT = .8715E-4
MEAN_MOTION_DDOT = 0

